ORBCOMM FM115           
1 41186U 15081H   25258.22326538  .00000760  00000+0  18230-3 0  9997
2 41186  46.9997 331.3006 0000576 209.0190 151.0665 14.62651638520958
ORBCOMM FM108           
1 41187U 15081J   25258.13332804  .00000787  00000+0  20497-3 0  9998
2 41187  47.0058  42.1531 0002051 352.9250   7.1606 14.58301693519923
ORBCOMM FM117           
1 41188U 15081K   25257.41443736  .00000475  00000+0  13820-3 0  9992
2 41188  47.0019  44.2814 0002531   4.8882 355.2028 14.58294790519862
ORBCOMM FM116           
1 41189U 15081L   25258.08414935  .00000605  00000+0  16571-3 0  9997
2 41189  47.0016 130.9297 0001900 228.7530 131.3192 14.58378951518770
